UNKNOWN                 
1 81864U          25345.51791026  .00001288  00000+0  52510-3 0  9991
2 81864  65.6702  69.7208 0763209  13.6554 348.3917 13.32362233550674
UNKNOWN                 
1 81865U          25345.11310447  .00002080  00000+0  17088-2 0  9993
2 81865  82.8055  29.9425 0061405  10.6885  21.1550 13.88011212608323
UNKNOWN                 
1 81893U          25344.68603264  .00001619  00000+0  16962-2 0  9994
2 81893 100.0472 327.8814 0020376 275.2617  84.6206 13.76685391603796
UNKNOWN                 
1 81899U          25341.49453025  .00002381  00000+0  55382-2 0  9990
2 81899 102.4176  82.3586 0183501 224.4448 134.1810 13.20170406578299
UNKNOWN                 
1 81921U          25345.57587208  .00002225  00000+0  92469-3 0  9995
2 81921  65.7104  55.7774 0845027 115.0576 254.0563 13.15182287 25631
UNKNOWN                 
1 81946U          25342.79864878  .00000099  00000+0  49968-3 0  9997
2 81946  66.4150 160.2310 0672157 353.2715  27.8585 12.42574196547393
UNKNOWN                 
1 81947U          25343.81868418  .00009571  00000+0  91356-3 0  9998
2 81947  66.0730 176.3334 0376866 144.6348 218.0395 14.52581827630590
UNKNOWN                 
1 81964U          25345.16901536  .00000370  00000+0  32754-3 0  9991
2 81964  66.5849 262.6826 0028994  87.6929 272.7469 13.95793974613827
UNKNOWN                 
1 81969U          25345.42486105  .00021319  00000+0  12753-2 0  9997
2 81969  86.6891 154.0113 0002831 208.6444 151.4639 15.10937592439973
UNKNOWN                 
1 81995U          25344.14955258  .00006560  00000+0  12355-2 0  9993
2 81995  65.7453 130.7933 0520276 298.2965  56.6548 14.03723059603864
UNKNOWN                 
1 82043U          25345.67209759  .00003469  00000+0  95848-3 0  9999
2 82043  97.9282 134.4575 0232518  86.7866 275.9892 14.32552006573697
UNKNOWN                 
1 82051U          25340.98024424  .00009683  00000+0  32001-2 0  9996
2 82051  98.7481  66.3891 0092225 276.0868  82.9815 14.35789494571588
