CCSDS_OMM_VERS = 2.0
CREATION_DATE  = 
ORIGINATOR     = 

OBJECT_NAME    = UNKNOWN
OBJECT_ID      = 
CENTER_NAME    = EARTH
REF_FRAME      = TEME
TIME_SYSTEM    = UTC
MEAN_ELEMENT_THEORY = SGP/SGP4

EPOCH          = 2025-12-11T12:25:47.446464
MEAN_MOTION    = 13.32362233
ECCENTRICITY   = .0763209
INCLINATION    = 65.6702
RA_OF_ASC_NODE = 69.7208
ARG_OF_PERICENTER = 13.6554
MEAN_ANOMALY   = 348.3917

EPHEMERIS_TYPE = 0
CLASSIFICATION_TYPE = U
NORAD_CAT_ID   = 81864
ELEMENT_SET_NO = 999
REV_AT_EPOCH   = 55067
BSTAR          = .5251E-3
MEAN_MOTION_DOT = .1288E-4
MEAN_MOTION_DDOT = 0

CCSDS_OMM_VERS = 2.0
CREATION_DATE  = 
ORIGINATOR     = 

OBJECT_NAME    = UNKNOWN
OBJECT_ID      = 
CENTER_NAME    = EARTH
REF_FRAME      = TEME
TIME_SYSTEM    = UTC
MEAN_ELEMENT_THEORY = SGP/SGP4

EPOCH          = 2025-12-11T02:42:52.226208
MEAN_MOTION    = 13.88011212
ECCENTRICITY   = .0061405
INCLINATION    = 82.8055
RA_OF_ASC_NODE = 29.9425
ARG_OF_PERICENTER = 10.6885
MEAN_ANOMALY   = 21.1550

EPHEMERIS_TYPE = 0
CLASSIFICATION_TYPE = U
NORAD_CAT_ID   = 81865
ELEMENT_SET_NO = 999
REV_AT_EPOCH   = 60832
BSTAR          = .17088E-2
MEAN_MOTION_DOT = .208E-4
MEAN_MOTION_DDOT = 0

CCSDS_OMM_VERS = 2.0
CREATION_DATE  = 
ORIGINATOR     = 

OBJECT_NAME    = UNKNOWN
OBJECT_ID      = 
CENTER_NAME    = EARTH
REF_FRAME      = TEME
TIME_SYSTEM    = UTC
MEAN_ELEMENT_THEORY = SGP/SGP4

EPOCH          = 2025-12-10T16:27:53.220096
MEAN_MOTION    = 13.76685391
ECCENTRICITY   = .0020376
INCLINATION    = 100.0472
RA_OF_ASC_NODE = 327.8814
ARG_OF_PERICENTER = 275.2617
MEAN_ANOMALY   = 84.6206

EPHEMERIS_TYPE = 0
CLASSIFICATION_TYPE = U
NORAD_CAT_ID   = 81893
ELEMENT_SET_NO = 999
REV_AT_EPOCH   = 60379
BSTAR          = .16962E-2
MEAN_MOTION_DOT = .1619E-4
MEAN_MOTION_DDOT = 0

CCSDS_OMM_VERS = 2.0
CREATION_DATE  = 
ORIGINATOR     = 

OBJECT_NAME    = UNKNOWN
OBJECT_ID      = 
CENTER_NAME    = EARTH
REF_FRAME      = TEME
TIME_SYSTEM    = UTC
MEAN_ELEMENT_THEORY = SGP/SGP4

EPOCH          = 2025-12-07T11:52:07.413600
MEAN_MOTION    = 13.20170406
ECCENTRICITY   = .0183501
INCLINATION    = 102.4176
RA_OF_ASC_NODE = 82.3586
ARG_OF_PERICENTER = 224.4448
MEAN_ANOMALY   = 134.1810

EPHEMERIS_TYPE = 0
CLASSIFICATION_TYPE = U
NORAD_CAT_ID   = 81899
ELEMENT_SET_NO = 999
REV_AT_EPOCH   = 57829
BSTAR          = .55382E-2
MEAN_MOTION_DOT = .2381E-4
MEAN_MOTION_DDOT = 0

CCSDS_OMM_VERS = 2.0
CREATION_DATE  = 
ORIGINATOR     = 

OBJECT_NAME    = UNKNOWN
OBJECT_ID      = 
CENTER_NAME    = EARTH
REF_FRAME      = TEME
TIME_SYSTEM    = UTC
MEAN_ELEMENT_THEORY = SGP/SGP4

EPOCH          = 2025-12-11T13:49:15.347712
MEAN_MOTION    = 13.15182287
ECCENTRICITY   = .0845027
INCLINATION    = 65.7104
RA_OF_ASC_NODE = 55.7774
ARG_OF_PERICENTER = 115.0576
MEAN_ANOMALY   = 254.0563

EPHEMERIS_TYPE = 0
CLASSIFICATION_TYPE = U
NORAD_CAT_ID   = 81921
ELEMENT_SET_NO = 999
REV_AT_EPOCH   = 2563
BSTAR          = .92469E-3
MEAN_MOTION_DOT = .2225E-4
MEAN_MOTION_DDOT = 0

CCSDS_OMM_VERS = 2.0
CREATION_DATE  = 
ORIGINATOR     = 

OBJECT_NAME    = UNKNOWN
OBJECT_ID      = 
CENTER_NAME    = EARTH
REF_FRAME      = TEME
TIME_SYSTEM    = UTC
MEAN_ELEMENT_THEORY = SGP/SGP4

EPOCH          = 2025-12-08T19:10:03.254592
MEAN_MOTION    = 12.42574196
ECCENTRICITY   = .0672157
INCLINATION    = 66.4150
RA_OF_ASC_NODE = 160.2310
ARG_OF_PERICENTER = 353.2715
MEAN_ANOMALY   = 27.8585

EPHEMERIS_TYPE = 0
CLASSIFICATION_TYPE = U
NORAD_CAT_ID   = 81946
ELEMENT_SET_NO = 999
REV_AT_EPOCH   = 54739
BSTAR          = .49968E-3
MEAN_MOTION_DOT = .99E-6
MEAN_MOTION_DDOT = 0

CCSDS_OMM_VERS = 2.0
CREATION_DATE  = 
ORIGINATOR     = 

OBJECT_NAME    = UNKNOWN
OBJECT_ID      = 
CENTER_NAME    = EARTH
REF_FRAME      = TEME
TIME_SYSTEM    = UTC
MEAN_ELEMENT_THEORY = SGP/SGP4

EPOCH          = 2025-12-09T19:38:54.313152
MEAN_MOTION    = 14.52581827
ECCENTRICITY   = .0376866
INCLINATION    = 66.0730
RA_OF_ASC_NODE = 176.3334
ARG_OF_PERICENTER = 144.6348
MEAN_ANOMALY   = 218.0395

EPHEMERIS_TYPE = 0
CLASSIFICATION_TYPE = U
NORAD_CAT_ID   = 81947
ELEMENT_SET_NO = 999
REV_AT_EPOCH   = 63059
BSTAR          = .91356E-3
MEAN_MOTION_DOT = .9571E-4
MEAN_MOTION_DDOT = 0

CCSDS_OMM_VERS = 2.0
CREATION_DATE  = 
ORIGINATOR     = 

OBJECT_NAME    = UNKNOWN
OBJECT_ID      = 
CENTER_NAME    = EARTH
REF_FRAME      = TEME
TIME_SYSTEM    = UTC
MEAN_ELEMENT_THEORY = SGP/SGP4

EPOCH          = 2025-12-11T04:03:22.927104
MEAN_MOTION    = 13.95793974
ECCENTRICITY   = .0028994
INCLINATION    = 66.5849
RA_OF_ASC_NODE = 262.6826
ARG_OF_PERICENTER = 87.6929
MEAN_ANOMALY   = 272.7469

EPHEMERIS_TYPE = 0
CLASSIFICATION_TYPE = U
NORAD_CAT_ID   = 81964
ELEMENT_SET_NO = 999
REV_AT_EPOCH   = 61382
BSTAR          = .32754E-3
MEAN_MOTION_DOT = .37E-5
MEAN_MOTION_DDOT = 0

CCSDS_OMM_VERS = 2.0
CREATION_DATE  = 
ORIGINATOR     = 

OBJECT_NAME    = UNKNOWN
OBJECT_ID      = 
CENTER_NAME    = EARTH
REF_FRAME      = TEME
TIME_SYSTEM    = UTC
MEAN_ELEMENT_THEORY = SGP/SGP4

EPOCH          = 2025-12-11T10:11:47.994720
MEAN_MOTION    = 15.10937592
ECCENTRICITY   = .0002831
INCLINATION    = 86.6891
RA_OF_ASC_NODE = 154.0113
ARG_OF_PERICENTER = 208.6444
MEAN_ANOMALY   = 151.4639

EPHEMERIS_TYPE = 0
CLASSIFICATION_TYPE = U
NORAD_CAT_ID   = 81969
ELEMENT_SET_NO = 999
REV_AT_EPOCH   = 43997
BSTAR          = .12753E-2
MEAN_MOTION_DOT = .21319E-3
MEAN_MOTION_DDOT = 0

CCSDS_OMM_VERS = 2.0
CREATION_DATE  = 
ORIGINATOR     = 

OBJECT_NAME    = UNKNOWN
OBJECT_ID      = 
CENTER_NAME    = EARTH
REF_FRAME      = TEME
TIME_SYSTEM    = UTC
MEAN_ELEMENT_THEORY = SGP/SGP4

EPOCH          = 2025-12-10T03:35:21.342912
MEAN_MOTION    = 14.03723059
ECCENTRICITY   = .0520276
INCLINATION    = 65.7453
RA_OF_ASC_NODE = 130.7933
ARG_OF_PERICENTER = 298.2965
MEAN_ANOMALY   = 56.6548

EPHEMERIS_TYPE = 0
CLASSIFICATION_TYPE = U
NORAD_CAT_ID   = 81995
ELEMENT_SET_NO = 999
REV_AT_EPOCH   = 60386
BSTAR          = .12355E-2
MEAN_MOTION_DOT = .656E-4
MEAN_MOTION_DDOT = 0

CCSDS_OMM_VERS = 2.0
CREATION_DATE  = 
ORIGINATOR     = 

OBJECT_NAME    = UNKNOWN
OBJECT_ID      = 
CENTER_NAME    = EARTH
REF_FRAME      = TEME
TIME_SYSTEM    = UTC
MEAN_ELEMENT_THEORY = SGP/SGP4

EPOCH          = 2025-12-11T16:07:49.231776
MEAN_MOTION    = 14.32552006
ECCENTRICITY   = .0232518
INCLINATION    = 97.9282
RA_OF_ASC_NODE = 134.4575
ARG_OF_PERICENTER = 86.7866
MEAN_ANOMALY   = 275.9892

EPHEMERIS_TYPE = 0
CLASSIFICATION_TYPE = U
NORAD_CAT_ID   = 82043
ELEMENT_SET_NO = 999
REV_AT_EPOCH   = 57369
BSTAR          = .95848E-3
MEAN_MOTION_DOT = .3469E-4
MEAN_MOTION_DDOT = 0

CCSDS_OMM_VERS = 2.0
CREATION_DATE  = 
ORIGINATOR     = 

OBJECT_NAME    = UNKNOWN
OBJECT_ID      = 
CENTER_NAME    = EARTH
REF_FRAME      = TEME
TIME_SYSTEM    = UTC
MEAN_ELEMENT_THEORY = SGP/SGP4

EPOCH          = 2025-12-06T23:31:33.102336
MEAN_MOTION    = 14.35789494
ECCENTRICITY   = .0092225
INCLINATION    = 98.7481
RA_OF_ASC_NODE = 66.3891
ARG_OF_PERICENTER = 276.0868
MEAN_ANOMALY   = 82.9815

EPHEMERIS_TYPE = 0
CLASSIFICATION_TYPE = U
NORAD_CAT_ID   = 82051
ELEMENT_SET_NO = 999
REV_AT_EPOCH   = 57158
BSTAR          = .32001E-2
MEAN_MOTION_DOT = .9683E-4
MEAN_MOTION_DDOT = 0

